{"type": "FeatureCollection", "features": [ {"type": "Feature", "properties": {"norad_id": 39019, "name": "PLEIADES 1B", "group": "resource", "lat": -32.20613346109886, "lon": -114.40576548126039, "alt_km": 704.3964986432984, "timestamp": "2025-12-24T07:45:05.855796+00:00", "meta": {"OBJECT_NAME": "PLEIADES 1B", "OBJECT_ID": "2012-068A", "EPOCH": "2025-12-23T22:32:54.249792", "MEAN_MOTION": 14.58562392, "ECCENTRICITY": 0.00011433, "INCLINATION": 98.1783, "RA_OF_ASC_NODE": 70.4141, "ARG_OF_PERICENTER": 86.5405, "MEAN_ANOMALY": 273.5925, "EPHEMERIS_TYPE": 0, "CLASSIFICATION_TYPE": "U", "NORAD_CAT_ID": 39019, "ELEMENT_SET_NO": 999, "REV_AT_EPOCH": 69530, "BSTAR": 9.4838995e-05, "MEAN_MOTION_DOT": 3.95e-06, "MEAN_MOTION_DDOT": 0}, "tle": {"line1": "1 39019U 12068A   25357.93951678  .00000395  00000+0  94839-4 0  9992", "line2": "2 39019  98.1783  70.4141 0001143  86.5405 273.5925 14.58562392695305"}}, "geometry": {"type": "Point", "coordinates": [-114.40576548126039, -32.20613346109886]}}, {"type": "Feature", "properties": {"norad_id": 39030, "name": "GOKTURK 2", "group": "resource", "lat": 43.851375671689446, "lon": -168.05011166436148, "alt_km": 640.0466955081065, "timestamp": "2025-12-24T07:45:05.855806+00:00", "meta": {"OBJECT_NAME": "GOKTURK 2", "OBJECT_ID": "2012-073A", "EPOCH": "2025-12-23T23:24:44.636832", "MEAN_MOTION": 14.75305568, "ECCENTRICITY": 0.00013899, "INCLINATION": 97.6883, "RA_OF_ASC_NODE": 199.0764, "ARG_OF_PERICENTER": 106.8113, "MEAN_ANOMALY": 253.3249, "EPHEMERIS_TYPE": 0, "CLASSIFICATION_TYPE": "U", "NORAD_CAT_ID": 39030, "ELEMENT_SET_NO": 999, "REV_AT_EPOCH": 69867, "BSTAR": 9.1312733e-05, "MEAN_MOTION_DOT": 5.71e-06, "MEAN_MOTION_DDOT": 0}, "tle": {"line1": "1 39030U 12073A   25357.97551663  .00000571  00000+0  91313-4 0  9995", "line2": "2 39030  97.6883 199.0764 0001389 106.8113 253.3249 14.75305568698673"}}, "geometry": {"type": "Point", "coordinates": [-168.05011166436148, 43.851375671689446]}}, {"type": "Feature", "properties": {"norad_id": 39084, "name": "LANDSAT 8", "group": "resource", "lat": -37.302993380436774, "lon": 72.53638018037474, "alt_km": 709.3524452170168, "timestamp": "2025-12-24T07:45:05.855816+00:00", "meta": {"OBJECT_NAME": "LANDSAT 8", "OBJECT_ID": "2013-008A", "EPOCH": "2025-12-23T22:02:10.222368", "MEAN_MOTION": 14.57113456, "ECCENTRICITY": 0.00010558, "INCLINATION": 98.2057, "RA_OF_ASC_NODE": 65.8259, "ARG_OF_PERICENTER": 92.3761, "MEAN_ANOMALY": 267.7558, "EPHEMERIS_TYPE": 0, "CLASSIFICATION_TYPE": "U", "NORAD_CAT_ID": 39084, "ELEMENT_SET_NO": 999, "REV_AT_EPOCH": 67237, "BSTAR": 0.00010184025, "MEAN_MOTION_DOT": 4.14e-06, "MEAN_MOTION_DDOT": 0}, "tle": {"line1": "1 39084U 13008A   25357.91817387  .00000414  00000+0  10184-3 0  9997", "line2": "2 39084  98.2057  65.8259 0001055  92.3761 267.7558 14.57113456672373"}}, "geometry": {"type": "Point", "coordinates": [72.53638018037474, -37.302993380436774]}}, {"type": "Feature", "properties": {"norad_id": 39086, "name": "SARAL", "group": "resource", "lat": 13.887324922090281, "lon": 179.9702792757334, "alt_km": 782.8396686550814, "timestamp": "2025-12-24T07:45:05.855826+00:00", "meta": {"OBJECT_NAME": "SARAL", "OBJECT_ID": "2013-009A", "EPOCH": "2025-12-23T23:18:21.698208", "MEAN_MOTION": 14.32760771, "ECCENTRICITY": 0.00029633, "INCLINATION": 98.5503, "RA_OF_ASC_NODE": 181.7548, "ARG_OF_PERICENTER": 87.6039, "MEAN_ANOMALY": 272.5485, "EPHEMERIS_TYPE": 0, "CLASSIFICATION_TYPE": "U", "NORAD_CAT_ID": 39086, "ELEMENT_SET_NO": 999, "REV_AT_EPOCH": 67051, "BSTAR": 5.8810116e-05, "MEAN_MOTION_DOT": 1.17e-06, "MEAN_MOTION_DDOT": 0}, "tle": {"line1": "1 39086U 13009A   25357.97108447  .00000117  00000+0  58810-4 0  9995", "line2": "2 39086  98.5503 181.7548 0002963  87.6039 272.5485 14.32760771670515"}}, "geometry": {"type": "Point", "coordinates": [179.9702792757334, 13.887324922090281]}}, {"type": "Feature", "properties": {"norad_id": 39150, "name": "GAOFEN-1", "group": "resource", "lat": 6.127471201606325, "lon": -110.365761944214, "alt_km": 637.2430835450095, "timestamp": "2025-12-24T07:45:05.855837+00:00", "meta": {"OBJECT_NAME": "GAOFEN-1", "OBJECT_ID": "2013-018A", "EPOCH": "2025-12-23T22:50:12.985152", "MEAN_MOTION": 14.76497297, "ECCENTRICITY": 0.00184999, "INCLINATION": 97.9314, "RA_OF_ASC_NODE": 68.4119, "ARG_OF_PERICENTER": 109.0711, "MEAN_ANOMALY": 251.2504, "EPHEMERIS_TYPE": 0, "CLASSIFICATION_TYPE": "U", "NORAD_CAT_ID": 39150, "ELEMENT_SET_NO": 999, "REV_AT_EPOCH": 68238, "BSTAR": 9.0530126e-05, "MEAN_MOTION_DOT": 5.81e-06, "MEAN_MOTION_DDOT": 0}, "tle": {"line1": "1 39150U 13018A   25357.95153918  .00000581  00000+0  90530-4 0  9998", "line2": "2 39150  97.9314  68.4119 0018499 109.0711 251.2504 14.76497297682384"}}, "geometry": {"type": "Point", "coordinates": [-110.365761944214, 6.127471201606325]}}, {"type": "Feature", "properties": {"norad_id": 39160, "name": "VNREDSAT 1", "group": "resource", "lat": 65.2276742227189, "lon": -109.21528221405984, "alt_km": 670.2125223136372, "timestamp": "2025-12-24T07:45:05.855847+00:00", "meta": {"OBJECT_NAME": "VNREDSAT 1", "OBJECT_ID": "2013-021B", "EPOCH": "2025-12-23T23:02:20.619168", "MEAN_MOTION": 14.64938367, "ECCENTRICITY": 0.00011759, "INCLINATION": 97.9356, "RA_OF_ASC_NODE": 52.841, "ARG_OF_PERICENTER": 81.8483, "MEAN_ANOMALY": 278.2854, "EPHEMERIS_TYPE": 0, "CLASSIFICATION_TYPE": "U", "NORAD_CAT_ID": 39160, "ELEMENT_SET_NO": 999, "REV_AT_EPOCH": 67463, "BSTAR": 0.00012317537, "MEAN_MOTION_DOT": 6.13e-06, "MEAN_MOTION_DDOT": 0}, "tle": {"line1": "1 39160U 13021B   25357.95996087  .00000613  00000+0  12318-3 0  9998", "line2": "2 39160  97.9356  52.8410 0001175  81.8483 278.2854 14.64938367674639"}}, "geometry": {"type": "Point", "coordinates": [-109.21528221405984, 65.2276742227189]}}, {"type": "Feature", "properties": {"norad_id": 39227, "name": "ARIRANG-5 (KOMPSAT-5)", "group": "resource", "lat": 39.619816291706265, "lon": 176.1021093409658, "alt_km": 547.9690250229405, "timestamp": "2025-12-24T07:45:05.855857+00:00", "meta": {"OBJECT_NAME": "ARIRANG-5 (KOMPSAT-5)", "OBJECT_ID": "2013-042A", "EPOCH": "2025-12-23T23:35:35.368800", "MEAN_MOTION": 15.0447966, "ECCENTRICITY": 0.0003109, "INCLINATION": 97.6159, "RA_OF_ASC_NODE": 182.1268, "ARG_OF_PERICENTER": 32.8392, "MEAN_ANOMALY": 327.3027, "EPHEMERIS_TYPE": 0, "CLASSIFICATION_TYPE": "U", "NORAD_CAT_ID": 39227, "ELEMENT_SET_NO": 999, "REV_AT_EPOCH": 67751, "BSTAR": 0.00017262006, "MEAN_MOTION_DOT": 2.355e-05, "MEAN_MOTION_DDOT": 0}, "tle": {"line1": "1 39227U 13042A   25357.98304825  .00002355  00000+0  17262-3 0  9999", "line2": "2 39227  97.6159 182.1268 0003109  32.8392 327.3027 15.04479660677512"}}, "geometry": {"type": "Point", "coordinates": [176.1021093409658, 39.619816291706265]}}, {"type": "Feature", "properties": {"norad_id": 39418, "name": "SKYSAT-A", "group": "resource", "lat": -10.350175084359265, "lon": 49.54085633102407, "alt_km": 548.8431898137951, "timestamp": "2025-12-24T07:45:05.855867+00:00", "meta": {"OBJECT_NAME": "SKYSAT-A", "OBJECT_ID": "2013-066C", "EPOCH": "2025-12-23T22:15:57.591360", "MEAN_MOTION": 15.11681429, "ECCENTRICITY": 0.00215324, "INCLINATION": 97.4088, "RA_OF_ASC_NODE": 47.7959, "ARG_OF_PERICENTER": 196.2356, "MEAN_ANOMALY": 163.8188, "EPHEMERIS_TYPE": 0, "CLASSIFICATION_TYPE": "U", "NORAD_CAT_ID": 39418, "ELEMENT_SET_NO": 999, "REV_AT_EPOCH": 66199, "BSTAR": 0.00020573381, "MEAN_MOTION_DOT": 3.456e-05, "MEAN_MOTION_DDOT": 0}, "tle": {"line1": "1 39418U 13066C   25357.92774990  .00003456  00000+0  20573-3 0  9997", "line2": "2 39418  97.4088  47.7959 0021532 196.2356 163.8188 15.11681429661993"}}, "geometry": {"type": "Point", "coordinates": [49.54085633102407, -10.350175084359265]}}, {"type": "Feature", "properties": {"norad_id": 39419, "name": "DUBAISAT-2", "group": "resource", "lat": -2.9363967816185017, "lon": -11.242242734827096, "alt_km": 543.2509961824617, "timestamp": "2025-12-24T07:45:05.855877+00:00", "meta": {"OBJECT_NAME": "DUBAISAT-2", "OBJECT_ID": "2013-066D", "EPOCH": "2025-12-23T23:48:16.436160", "MEAN_MOTION": 15.08460045, "ECCENTRICITY": 0.00099807, "INCLINATION": 97.4455, "RA_OF_ASC_NODE": 348.0524, "ARG_OF_PERICENTER": 277.3318, "MEAN_ANOMALY": 82.6776, "EPHEMERIS_TYPE": 0, "CLASSIFICATION_TYPE": "U", "NORAD_CAT_ID": 39419, "ELEMENT_SET_NO": 999, "REV_AT_EPOCH": 65996, "BSTAR": 0.00035618487, "MEAN_MOTION_DOT": 5.494e-05, "MEAN_MOTION_DDOT": 0}, "tle": {"line1": "1 39419U 13066D   25357.99185690  .00005494  00000+0  35618-3 0  9998", "line2": "2 39419  97.4455 348.0524 0009980 277.3318  82.6776 15.08460045659969"}}, "geometry": {"type": "Point", "coordinates": [-11.242242734827096, -2.9363967816185017]}}, {"type": "Feature", "properties": {"norad_id": 39574, "name": "GPM-CORE", "group": "resource", "lat": -47.70629088280285, "lon": 24.7949141852749, "alt_km": 432.2519199204289, "timestamp": "2025-12-24T07:45:05.855887+00:00", "meta": {"OBJECT_NAME": "GPM-CORE", "OBJECT_ID": "2014-009C", "EPOCH": "2025-12-23T21:24:55.422432", "MEAN_MOTION": 15.44631054, "ECCENTRICITY": 0.000917, "INCLINATION": 64.9724, "RA_OF_ASC_NODE": 175.3335, "ARG_OF_PERICENTER": 249.995, "MEAN_ANOMALY": 110.0203, "EPHEMERIS_TYPE": 0, "CLASSIFICATION_TYPE": "U", "NORAD_CAT_ID": 39574, "ELEMENT_SET_NO": 999, "REV_AT_EPOCH": 67073, "BSTAR": 0.0001863823, "MEAN_MOTION_DOT": 8.493e-05, "MEAN_MOTION_DDOT": 0}, "tle": {"line1": "1 39574U 14009C   25357.89230813  .00008493  00000+0  18638-3 0  9990", "line2": "2 39574  64.9724 175.3335 0009170 249.9950 110.0203 15.44631054670737"}}, "geometry": {"type": "Point", "coordinates": [24.7949141852749, -47.70629088280285]}}]}